SKYKRAFT-1A             
1 55054U 23001AX  26068.71064616  .00008177  00000+0  30069-3 0  9991
2 55054  97.3349 127.6290 0011277 121.5092 238.7251 15.28083228176529
STARLINK-36114          
1 66870U 25281Y   26068.16680333  .00028498  00000+0  10411-2 0  9996
2 66870  43.0035 346.5907 0001738 277.5261  82.5393 15.27579451 16099
